NORAD_CAT_ID,OBJECT_NAME,OBJECT_TYPE,EPOCH,MEAN_MOTION,ECCENTRICITY,INCLINATION,RA_OF_ASC_NODE,ARG_OF_PERICENTER,MEAN_ANOMALY,BSTAR,MEAN_MOTION_DOT,MEAN_MOTION_DDOT,TLE_LINE0,TLE_LINE1,TLE_LINE2,SEMIMAJOR_AXIS,PERIOD,APOGEE,PERIGEE,DECAYED
53601.0,STARLINK-4675,PAYLOAD,2023-06-07 14:44:09,15.08834317,0.0001145,53.217,80.4244,84.2337,275.8786,6.5572e-05,7.56e-06,0.0,0 STARLINK-4675,1 53601U 22104P   23158.61400243  .00000756  00000-0  65572-4 0  9990,2 53601  53.2170  80.4244 0001145  84.2337 275.8786 15.08834317 43049,6917.898,95.438,540.555,538.971,0.0
53601.0,STARLINK-4675,PAYLOAD,2023-06-07 21:05:42,15.08830671,0.0001116,53.2171,79.2349,83.9251,276.1869,-1.7968e-05,-5.74e-06,0.0,0 STARLINK-4675,1 53601U 22104P   23158.87896901 -.00000574  00000-0 -17968-4 0  9994,2 53601  53.2171  79.2349 0001116  83.9251 276.1869 15.08830671 43776,6917.909,95.438,540.546,539.002,0.0
53601.0,STARLINK-4675,PAYLOAD,2023-06-08 00:16:29,15.08832774,0.0001093,53.2171,78.6403,83.1533,276.9584,-1.8744e-06,-3.18e-06,0.0,0 STARLINK-4675,1 53601U 22104P   23159.01144772 -.00000318  00000-0 -18744-5 0  9993,2 53601  53.2171  78.6403 0001093  83.1533 276.9584 15.08832774 43799,6917.902,95.438,540.524,539.011,0.0
53601.0,STARLINK-4675,PAYLOAD,2023-06-08 22:31:52,15.08841528,0.0001084,53.2174,74.4774,78.7809,281.3305,4.3402e-05,4.03e-06,0.0,0 STARLINK-4675,1 53601U 22104P   23159.93880307  .00000403  00000-0  43402-4 0  9996,2 53601  53.2174  74.4774 0001084  78.7809 281.3305 15.08841528 43241,6917.876,95.437,540.491,538.991,0.0
53601.0,STARLINK-4675,PAYLOAD,2023-06-09 03:18:01,15.08849865,0.0001106,53.2173,73.5842,90.8868,269.2251,0.00010417,1.371e-05,0.0,0 STARLINK-4675,1 53601U 22104P   23160.13751493  .00001371  00000-0  10417-3 0  9997,2 53601  53.2173  73.5842 0001106  90.8868 269.2251 15.08849865 43271,6917.85,95.437,540.48,538.95,0.0
53601.0,STARLINK-4675,PAYLOAD,2023-06-09 11:14:57,15.08837467,0.0001299,53.2167,72.0942,87.7834,272.3307,2.8031e-05,1.58e-06,0.0,0 STARLINK-4675,1 53601U 22104P   23160.46872619  .00000158  00000-0  28031-4 0  9991,2 53601  53.2167  72.0942 0001299  87.7834 272.3307 15.08837467 44015,6917.888,95.438,540.652,538.854,0.0
53601.0,STARLINK-4675,PAYLOAD,2023-06-10 03:08:49,15.08836822,0.0001218,53.2176,69.124,81.9445,278.1685,4.4837e-05,4.26e-06,0.0,0 STARLINK-4675,1 53601U 22104P   23161.13112731  .00000426  00000-0  44837-4 0  9998,2 53601  53.2176  69.1240 0001218  81.9445 278.1685 15.08836822 44116,6917.89,95.438,540.598,538.913,0.0
53601.0,STARLINK-4675,PAYLOAD,2023-06-10 17:27:17,15.08841555,0.0001223,53.2171,66.4485,88.5073,271.6059,-5.7505e-05,-1.203e-05,0.0,0 STARLINK-4675,1 53601U 22104P   23161.72728916 -.00001203  00000-0 -57505-4 0  9993,2 53601  53.2171  66.4485 0001223  88.5073 271.6059 15.08841555 43513,6917.876,95.437,540.587,538.895,0.0
53601.0,STARLINK-4675,PAYLOAD,2023-06-11 02:59:36,15.08842913,0.0001298,53.2171,64.6649,81.3591,278.7548,-3.7632e-05,-8.87e-06,0.0,0 STARLINK-4675,1 53601U 22104P   23162.12472771 -.00000887  00000-0 -37632-4 0  9999,2 53601  53.2171  64.6649 0001298  81.3591 278.7548 15.08842913 44266,6917.871,95.437,540.634,538.839,0.0
53601.0,STARLINK-4675,PAYLOAD,2023-06-11 17:18:04,15.08826924,0.0001376,53.2174,61.9869,87.7819,272.3331,0.0002415,3.556e-05,0.0,0 STARLINK-4675,1 53601U 22104P   23162.72088834  .00003556  00000-0  24150-3 0  9992,2 53601  53.2174  61.9869 0001376  87.7819 272.3331 15.08826924 44357,6917.92,95.438,540.737,538.833,0.0
53601.0,STARLINK-4675,PAYLOAD,2023-06-11 23:39:36,15.08832715,0.0001288,53.2173,60.7987,87.0736,273.0404,0.00028603,4.266e-05,0.0,0 STARLINK-4675,1 53601U 22104P   23162.98584434  .00004266  00000-0  28603-3 0  9993,2 53601  53.2173  60.7987 0001288  87.0736 273.0404 15.08832715 43709,6917.903,95.438,540.659,538.877,0.0
53601.0,STARLINK-4675,PAYLOAD,2023-06-12 10:47:18,15.0884284,0.0001155,53.2164,58.7177,83.9592,276.1531,-1.058e-05,-4.56e-06,0.0,0 STARLINK-4675,1 53601U 22104P   23163.44952416 -.00000456  00000-0 -10580-4 0  9999,2 53601  53.2164  58.7177 0001155  83.9592 276.1531 15.08842840 44464,6917.872,95.437,540.536,538.938,0.0
53601.0,STARLINK-4675,PAYLOAD,2023-06-12 20:19:38,15.08833918,0.0001253,53.2166,56.9335,79.1174,280.9959,2.3843e-05,9.2e-07,0.0,0 STARLINK-4675,1 53601U 22104P   23163.84697048  .00000092  00000-0  23843-4 0  9990,2 53601  53.2166  56.9335 0001253  79.1174 280.9959 15.08833918 44524,6917.899,95.438,540.631,538.897,0.0
53601.0,STARLINK-4675,PAYLOAD,2023-06-12 23:30:24,15.08836898,9.87e-05,53.218,56.3379,83.6021,276.5084,-1.0745e-05,-4.59e-06,0.0,0 STARLINK-4675,1 53601U 22104P   23163.97944937 -.00000459  00000-0 -10745-4 0  9992,2 53601  53.2180  56.3379 0000987  83.6021 276.5084 15.08836898 43851,6917.89,95.438,540.438,539.072,0.0
53601.0,STARLINK-4675,PAYLOAD,2023-06-13 20:10:25,15.08839149,0.0001084,53.2174,52.4722,91.3374,268.7742,-4.1959e-05,-9.55e-06,0.0,0 STARLINK-4675,1 53601U 22104P   23164.84056960 -.00000955  00000-0 -41959-4 0  9991,2 53601  53.2174  52.4722 0001084  91.3374 268.7742 15.08839149 44676,6917.883,95.438,540.498,538.998,0.0
53601.0,STARLINK-4675,PAYLOAD,2023-06-13 23:21:11,15.08838921,0.0001051,53.217,51.879,85.6246,274.4866,-2.6925e-05,-7.16e-06,0.0,0 STARLINK-4675,1 53601U 22104P   23164.97304918 -.00000716  00000-0 -26925-4 0  9995,2 53601  53.2170  51.8790 0001051  85.6246 274.4866 15.08838921 44698,6917.884,95.438,540.476,539.022,0.0
53601.0,STARLINK-4675,PAYLOAD,2023-06-14 16:50:26,15.08831993,9.98e-05,53.2175,48.6073,84.1879,275.9227,2.8012e-05,1.58e-06,0.0,0 STARLINK-4675,1 53601U 22104P   23165.70169309  .00000158  00000-0  28012-4 0  9997,2 53601  53.2175  48.6073 0000998  84.1879 275.9227 15.08831993 44112,6917.905,95.438,540.46,539.079,0.0
53601.0,STARLINK-4675,PAYLOAD,2023-06-14 20:01:12,15.08833075,0.0001005,53.2174,48.0127,84.9076,275.2031,3.2793e-05,2.34e-06,0.0,0 STARLINK-4675,1 53601U 22104P   23165.83417278  .00000234  00000-0  32793-4 0  9998,2 53601  53.2174  48.0127 0001005  84.9076 275.2031 15.08833075 44829,6917.902,95.438,540.462,539.071,0.0
53601.0,STARLINK-4675,PAYLOAD,2023-06-16 02:13:31,15.08842378,0.0001035,53.2178,42.3624,81.4278,278.6831,5.8373e-05,6.41e-06,0.0,0 STARLINK-4675,1 53601U 22104P   23167.09272893  .00000641  00000-0  58373-4 0  9994,2 53601  53.2178  42.3624 0001035  81.4278 278.6831 15.08842378 44327,6917.873,95.437,540.454,539.022,0.0
53601.0,STARLINK-4675,PAYLOAD,2023-06-16 08:35:04,15.08842793,9.78e-05,53.2178,41.1725,87.2266,272.8838,4.3148e-05,3.99e-06,0.0,0 STARLINK-4675,1 53601U 22104P   23167.35768857  .00000399  00000-0  43148-4 0  9997,2 53601  53.2178  41.1725 0000978  87.2266 272.8838 15.08842793 45057,6917.872,95.437,540.413,539.06,0.0
53601.0,STARLINK-4675,PAYLOAD,2023-06-17 00:28:54,15.08851825,9.96e-05,53.2178,38.1987,93.2913,266.8193,0.00014342,1.996e-05,0.0,0 STARLINK-4675,1 53601U 22104P   23168.02007722  .00001996  00000-0  14342-3 0  9996,2 53601  53.2178  38.1987 0000996  93.2913 266.8193 15.08851825 44466,6917.844,95.437,540.398,539.02,0.0
53601.0,STARLINK-4675,PAYLOAD,2023-06-17 21:08:57,15.08829949,0.0001306,53.2179,34.3325,91.933,268.1812,-9.0859e-05,-1.733e-05,0.0,0 STARLINK-4675,1 53601U 22104P   23168.88122289 -.00001733  00000-0 -90859-4 0  9995,2 53601  53.2179  34.3325 0001306  91.9330 268.1812 15.08829949 45281,6917.911,95.438,540.68,538.873,0.0
53601.0,STARLINK-4675,PAYLOAD,2023-06-18 00:19:44,15.0882737,0.0001092,53.218,33.738,100.3571,259.7544,-0.00010886,-2.019e-05,0.0,0 STARLINK-4675,1 53601U 22104P   23169.01370590 -.00002019  00000-0 -10886-3 0  9990,2 53601  53.2180  33.7380 0001092 100.3571 259.7544 15.08827370 44611,6917.919,95.438,540.539,539.029,0.0
53601.0,STARLINK-4675,PAYLOAD,2023-06-18 08:16:39,15.08831439,9.71e-05,53.2183,32.2514,82.1808,277.9294,-7.4466e-05,-1.472e-05,0.0,0 STARLINK-4675,1 53601U 22104P   23169.34490375 -.00001472  00000-0 -74466-4 0  9997,2 53601  53.2183  32.2514 0000971  82.1808 277.9294 15.08831439 45359,6917.907,95.438,540.443,539.1,0.0
53601.0,STARLINK-4675,PAYLOAD,2023-06-18 20:59:44,15.08833654,4.76e-05,53.2186,29.8712,90.1876,269.9171,-8.5969e-05,-1.655e-05,0.0,0 STARLINK-4675,1 53601U 22104P   23169.87482237 -.00001655  00000-0 -85969-4 0  9996,2 53601  53.2186  29.8712 0000476  90.1876 269.9171 15.08833654 45433,6917.9,95.438,540.094,539.435,0.0
53601.0,STARLINK-4675,PAYLOAD,2023-06-19 00:10:30,15.08845823,8.83e-05,53.2177,29.2783,99.7603,260.3489,-4.1667e-05,-9.51e-06,0.0,0 STARLINK-4675,1 53601U 22104P   23170.00729504 -.00000951  00000-0 -41667-4 0  9999,2 53601  53.2177  29.2783 0000883  99.7603 260.3489 15.08845823 44763,6917.863,95.437,540.338,539.117,0.0
53601.0,STARLINK-4675,PAYLOAD,2023-06-19 08:07:25,15.08850728,9.37e-05,53.218,27.791,85.2522,274.8577,3.0975e-06,-2.38e-06,0.0,0 STARLINK-4675,1 53601U 22104P   23170.33848994 -.00000238  00000-0  30975-5 0  9998,2 53601  53.2180  27.7910 0000937  85.2522 274.8577 15.08850728 45503,6917.848,95.437,540.361,539.064,0.0
53601.0,STARLINK-4675,PAYLOAD,2023-06-19 20:50:30,15.08841191,9.57e-05,53.218,25.412,73.7363,286.3734,0.0002444,3.604e-05,0.0,0 STARLINK-4675,1 53601U 22104P   23170.86841029  .00003604  00000-0  24440-3 0  9995,2 53601  53.2180  25.4120 0000957  73.7363 286.3734 15.08841191 45583,6917.877,95.437,540.404,539.08,0.0
53601.0,STARLINK-4675,PAYLOAD,2023-06-20 00:01:16,15.08842926,9.76e-05,53.218,24.8173,73.5316,286.5784,0.00025475,3.769e-05,0.0,0 STARLINK-4675,1 53601U 22104P   23171.00088932  .00003769  00000-0  25475-3 0  9999,2 53601  53.2180  24.8173 0000976  73.5316 286.5784 15.08842926 45608,6917.871,95.437,540.412,539.061,0.0
53601.0,STARLINK-4675,PAYLOAD,2023-06-20 17:30:32,15.08841582,0.0001023,53.2186,21.544,109.7701,250.3401,4.1051e-05,3.66e-06,0.0,0 STARLINK-4675,1 53601U 22104P   23171.72953714  .00000366  00000-0  41051-4 0  9996,2 53601  53.2186  21.5440 0001023 109.7701 250.3401 15.08841582 45027,6917.876,95.437,540.448,539.033,0.0
